NORAD_CAT_ID,OBJECT_NAME,OBJECT_TYPE,EPOCH,MEAN_MOTION,ECCENTRICITY,INCLINATION,RA_OF_ASC_NODE,ARG_OF_PERICENTER,MEAN_ANOMALY,BSTAR,MEAN_MOTION_DOT,MEAN_MOTION_DDOT,TLE_LINE0,TLE_LINE1,TLE_LINE2,SEMIMAJOR_AXIS,PERIOD,APOGEE,PERIGEE,DECAYED
53280.0,STARLINK-4169,PAYLOAD,2024-08-05 05:17:45,15.08836072,0.0001435,53.2162,229.1126,86.3548,273.7608,4.9527e-05,5e-06,0.0,0 STARLINK-4169,1 53280U 22086AQ  24218.22066369  .00000500  00000-0  49527-4 0  9993,2 53280  53.2162 229.1126 0001435  86.3548 273.7608 15.08836072113883,6917.892,95.438,540.75,538.765,0.0
53280.0,STARLINK-4169,PAYLOAD,2024-08-05 18:00:49,15.08843743,0.0001414,53.2159,226.7331,85.4458,274.6695,6.4204e-05,7.34e-06,0.0,0 STARLINK-4169,1 53280U 22086AQ  24218.75057723  .00000734  00000-0  64204-4 0  9993,2 53280  53.2159 226.7331 0001414  85.4458 274.6695 15.08843743113965,6917.869,95.437,540.712,538.756,0.0
53280.0,STARLINK-4169,PAYLOAD,2024-08-06 05:08:32,15.08836646,0.0001465,53.2158,224.6512,89.1348,270.9812,3.0578e-05,1.99e-06,0.0,0 STARLINK-4169,1 53280U 22086AQ  24219.21426297  .00000199  00000-0  30578-4 0  9993,2 53280  53.2158 224.6512 0001465  89.1348 270.9812 15.08836646114030,6917.891,95.438,540.769,538.742,0.0
53280.0,STARLINK-4169,PAYLOAD,2024-08-06 06:43:55,15.08837169,0.0001471,53.216,224.3541,89.7366,270.3795,2.8763e-05,1.7e-06,0.0,0 STARLINK-4169,1 53280U 22086AQ  24219.28050270  .00000170  00000-0  28763-4 0  9996,2 53280  53.2160 224.3541 0001471  89.7366 270.3795 15.08837169114210,6917.889,95.438,540.772,538.736,0.0
53280.0,STARLINK-4169,PAYLOAD,2024-08-06 17:51:37,15.08842469,0.0001505,53.2159,222.2721,86.3723,273.7441,3.4528e-05,2.62e-06,0.0,0 STARLINK-4169,1 53280U 22086AQ  24219.74417911  .00000262  00000-0  34528-4 0  9994,2 53280  53.2159 222.2721 0001505  86.3723 273.7441 15.08842469114284,6917.873,95.437,540.779,538.697,0.0
53280.0,STARLINK-4169,PAYLOAD,2024-08-08 09:36:15,15.08839742,0.0001523,53.2165,214.8361,94.781,265.3356,4.7343e-05,4.66e-06,0.0,0 STARLINK-4169,1 53280U 22086AQ  24221.40018042  .00000466  00000-0  47343-4 0  9997,2 53280  53.2165 214.8361 0001523  94.7810 265.3356 15.08839742114538,6917.881,95.438,540.8,538.693,0.0
53280.0,STARLINK-4169,PAYLOAD,2024-08-09 06:16:16,15.08836303,0.0001307,53.2148,210.9712,98.2562,261.8579,8.0601e-06,-1.6e-06,0.0,0 STARLINK-4169,1 53280U 22086AQ  24222.26130384 -.00000160  00000-0  80601-5 0  9993,2 53280  53.2148 210.9712 0001307  98.2562 261.8579 15.08836303114661,6917.892,95.438,540.661,538.853,0.0
53280.0,STARLINK-4169,PAYLOAD,2024-08-10 04:31:40,15.08838754,0.0001307,53.2153,206.8086,99.6925,260.4215,4.9406e-05,4.98e-06,0.0,0 STARLINK-4169,1 53280U 22086AQ  24223.18866225  .00000498  00000-0  49406-4 0  9995,2 53280  53.2153 206.8086 0001307  99.6925 260.4215 15.08838754114803,6917.884,95.438,540.653,538.845,0.0
53280.0,STARLINK-4169,PAYLOAD,2024-08-11 02:47:04,15.08835968,0.0001376,53.2161,202.647,103.5316,256.5829,7.9177e-05,9.72e-06,0.0,0 STARLINK-4169,1 53280U 22086AQ  24224.11602581  .00000972  00000-0  79177-4 0  9997,2 53280  53.2161 202.6470 0001376 103.5316 256.5829 15.08835968114775,6917.893,95.438,540.71,538.806,0.0
53280.0,STARLINK-4169,PAYLOAD,2024-08-11 15:30:08,15.08850156,0.0001351,53.2158,200.266,80.1843,279.9302,0.00016916,2.406e-05,0.0,0 STARLINK-4169,1 53280U 22086AQ  24224.64593561  .00002406  00000-0  16916-3 0  9997,2 53280  53.2158 200.2660 0001351  80.1843 279.9302 15.08850156114854,6917.849,95.437,540.649,538.78,0.0
53280.0,STARLINK-4169,PAYLOAD,2024-08-12 04:13:14,15.08840083,0.0001772,53.2162,197.8876,84.2042,275.9152,5.8147e-05,6.37e-06,0.0,0 STARLINK-4169,1 53280U 22086AQ  24225.17586619  .00000637  00000-0  58147-4 0  9999,2 53280  53.2162 197.8876 0001772  84.2042 275.9152 15.08840083114938,6917.88,95.438,540.971,538.519,0.0
53280.0,STARLINK-4169,PAYLOAD,2024-08-12 08:59:22,15.08856687,0.0001132,53.2149,196.9956,99.2061,260.9059,0.00019492,2.817e-05,0.0,0 STARLINK-4169,1 53280U 22086AQ  24225.37456995  .00002817  00000-0  19492-3 0  9995,2 53280  53.2149 196.9956 0001132  99.2061 260.9059 15.08856687114969,6917.829,95.436,540.477,538.911,0.0
53280.0,STARLINK-4169,PAYLOAD,2024-08-13 04:04:01,15.08843677,0.0001283,53.215,193.4252,101.0638,259.0498,7.3789e-05,8.87e-06,0.0,0 STARLINK-4169,1 53280U 22086AQ  24226.16945815  .00000887  00000-0  73789-4 0  9992,2 53280  53.2150 193.4252 0001283 101.0638 259.0498 15.08843677115086,6917.869,95.437,540.622,538.847,0.0
53280.0,STARLINK-4169,PAYLOAD,2024-08-13 05:39:24,15.08843245,0.0001364,53.2148,193.1278,101.3942,258.7204,5.3623e-05,5.66e-06,0.0,0 STARLINK-4169,1 53280U 22086AQ  24226.23570050  .00000566  00000-0  53623-4 0  9994,2 53280  53.2148 193.1278 0001364 101.3942 258.7204 15.08843245115261,6917.87,95.437,540.679,538.792,0.0
53280.0,STARLINK-4169,PAYLOAD,2024-08-13 21:33:16,15.08827426,0.0001699,53.2155,190.1574,86.272,273.8467,-0.00012979,-2.352e-05,0.0,0 STARLINK-4169,1 53280U 22086AQ  24226.89810695 -.00002352  00000-0 -12979-3 0  9993,2 53280  53.2155 190.1574 0001699  86.2720 273.8467 15.08827426115195,6917.919,95.438,540.959,538.608,0.0
53280.0,STARLINK-4169,PAYLOAD,2024-08-14 03:54:48,15.0883286,0.0001351,53.2147,188.9666,97.8065,262.3081,-0.00022279,-3.831e-05,0.0,0 STARLINK-4169,1 53280U 22086AQ  24227.16306491 -.00003831  00000-0 -22279-3 0  9995,2 53280  53.2147 188.9666 0001351  97.8065 262.3081 15.08832860115405,6917.902,95.438,540.702,538.833,0.0
53280.0,STARLINK-4169,PAYLOAD,2024-08-14 18:13:17,15.08834696,0.0001475,53.2149,186.2891,104.7534,255.3622,1.0147e-05,-1.26e-06,0.0,0 STARLINK-4169,1 53280U 22086AQ  24227.75922741 -.00000126  00000-0  10147-4 0  9997,2 53280  53.2149 186.2891 0001475 104.7534 255.3622 15.08834696115327,6917.897,95.438,540.782,538.741,0.0
53280.0,STARLINK-4169,PAYLOAD,2024-08-15 03:45:36,15.08835731,0.0001433,53.215,184.5067,104.2362,255.8789,0.00014048,1.948e-05,0.0,0 STARLINK-4169,1 53280U 22086AQ  24228.15666970  .00001948  00000-0  14048-3 0  9996,2 53280  53.2150 184.5067 0001433 104.2362 255.8789 15.08835731115558,6917.893,95.438,540.75,538.767,0.0
53280.0,STARLINK-4169,PAYLOAD,2024-08-16 03:36:23,15.08835311,0.0001516,53.2164,180.0484,92.7661,267.3505,0.00018421,2.645e-05,0.0,0 STARLINK-4169,1 53280U 22086AQ  24229.15027206  .00002645  00000-0  18421-3 0  9994,2 53280  53.2164 180.0484 0001516  92.7661 267.3505 15.08835311115538,6917.895,95.438,540.808,538.711,0.0
53280.0,STARLINK-4169,PAYLOAD,2024-08-17 03:27:10,15.08841268,0.0001328,53.2152,175.5864,92.5186,267.5958,0.00011769,1.586e-05,0.0,0 STARLINK-4169,1 53280U 22086AQ  24230.14387093  .00001586  00000-0  11769-3 0  9999,2 53280  53.2152 175.5864 0001328  92.5186 267.5958 15.08841268115854,6917.877,95.437,540.66,538.823,0.0
53280.0,STARLINK-4169,PAYLOAD,2024-08-17 19:21:01,15.08842941,0.0001301,53.2156,172.614,92.8152,267.2989,7.7101e-05,9.39e-06,0.0,0 STARLINK-4169,1 53280U 22086AQ  24230.80626882  .00000939  00000-0  77101-4 0  9998,2 53280  53.2156 172.6140 0001301  92.8152 267.2989 15.08842941115782,6917.871,95.437,540.636,538.836,0.0
53280.0,STARLINK-4169,PAYLOAD,2024-08-17 20:56:24,15.08839391,0.0001283,53.2152,172.3114,87.3877,272.7262,2.4361e-05,1e-06,0.0,0 STARLINK-4169,1 53280U 22086AQ  24230.87251119  .00000100  00000-0  24361-4 0  9992,2 53280  53.2152 172.3114 0001283  87.3877 272.7262 15.08839391115968,6917.882,95.438,540.635,538.86,0.0
53280.0,STARLINK-4169,PAYLOAD,2024-08-18 01:42:34,15.08835296,0.0001215,53.2161,171.42,88.4834,271.6298,2.3754e-05,9e-07,0.0,0 STARLINK-4169,1 53280U 22086AQ  24231.07123685  .00000090  00000-0  23754-4 0  9994,2 53280  53.2161 171.4200 0001215  88.4834 271.6298 15.08835296115826,6917.895,95.438,540.6,538.919,0.0
53280.0,STARLINK-4169,PAYLOAD,2024-08-18 20:47:12,15.08835232,0.000123,53.2164,167.852,97.2255,262.8877,2.1846e-05,6e-07,0.0,0 STARLINK-4169,1 53280U 22086AQ  24231.86611802  .00000060  00000-0  21846-4 0  9991,2 53280  53.2164 167.8520 0001230  97.2255 262.8877 15.08835232116113,6917.895,95.438,540.611,538.909,0.0
53280.0,STARLINK-4169,PAYLOAD,2024-08-19 03:08:45,15.08832526,0.0001249,53.2169,166.6628,93.0178,267.0957,-9.7971e-06,-4.44e-06,0.0,0 STARLINK-4169,1 53280U 22086AQ  24232.13108146 -.00000444  00000-0 -97971-5 0  9995,2 53280  53.2169 166.6628 0001249  93.0178 267.0957 15.08832526115985,6917.903,95.438,540.632,538.904,0.0
53280.0,STARLINK-4169,PAYLOAD,2024-08-19 12:41:03,15.08845916,0.0001261,53.217,164.8788,78.4219,281.6915,3.4132e-05,2.55e-06,0.0,0 STARLINK-4169,1 53280U 22086AQ  24232.52851272  .00000255  00000-0  34132-4 0  9990,2 53280  53.2170 164.8788 0001261  78.4219 281.6915 15.08845916116042,6917.862,95.437,540.6,538.855,0.0
53280.0,STARLINK-4169,PAYLOAD,2024-08-20 04:34:55,15.08834111,0.0001301,53.2171,161.9067,84.4166,275.6974,0.0001053,1.388e-05,0.0,0 STARLINK-4169,1 53280U 22086AQ  24233.19092154  .00001388  00000-0  10530-3 0  9993,2 53280  53.2171 161.9067 0001301  84.4166 275.6974 15.08834111116148,6917.898,95.438,540.663,538.863,0.0
53280.0,STARLINK-4169,PAYLOAD,2024-08-21 02:50:18,15.08843286,0.0001349,53.2175,157.7431,85.8353,274.2794,0.00017012,2.421e-05,0.0,0 STARLINK-4169,1 53280U 22086AQ  24234.11827466  .00002421  00000-0  17012-3 0  9999,2 53280  53.2175 157.7431 0001349  85.8353 274.2794 15.08843286116288,6917.87,95.437,540.669,538.802,0.0
53280.0,STARLINK-4169,PAYLOAD,2024-08-21 18:44:11,15.08818568,0.0001402,53.217,154.7723,90.28,269.8353,0.00040082,6.093e-05,0.0,0 STARLINK-4169,1 53280U 22086AQ  24234.78068497  .00006093  00000-0  40082-3 0  9995,2 53280  53.2170 154.7723 0001402  90.2800 269.8353 15.08818568116388,6917.946,95.439,540.781,538.841,0.0
